{"fetched_at":"2026-03-30T13:17:50Z","count":15418,"tles":[{"name":"STARLINK-30125","line1":"1 56701U 23067P   26087.67643918  .00004365  00000+0  16801-3 0  9990","line2":"2 56701  43.0057 163.8493 0002662 275.7063  84.3485 15.27589436158602","category":"Starlink"}]}