{
  "norad_id": 56701,
  "name": "STARLINK-30125",
  "history": [
    {
      "epoch": "2026-03-28T16:14:04.345152",
      "apogee_km": 484.84755607020816,
      "perigee_km": 481.19412674281557,
      "latitude_deg": -41.90460356448355,
      "longitude_deg": -84.9618387199007,
      "semi_major_axis_km": 6861.157841406512,
      "eccentricity": 0.00026624,
      "inclination_deg": 43.0057,
      "raan_deg": 163.8493,
      "arg_perigee_deg": 275.7063,
      "mean_anomaly_deg": 84.3485,
      "mean_motion_rev_day": 15.27589436
    }
  ]
}